{
  "links" : {
    "next" : "https://api.nasa.gov/neo/rest/v1/feed?start_date=1996-11-23&end_date=1996-11-23&detailed=true&api_key=t0TVs3DtDT2H8Oy2Zy8m2eVrNsAVKAexjcZXUckd",
    "prev" : "https://api.nasa.gov/neo/rest/v1/feed?start_date=1996-11-21&end_date=1996-11-21&detailed=true&api_key=t0TVs3DtDT2H8Oy2Zy8m2eVrNsAVKAexjcZXUckd",
    "self" : "https://api.nasa.gov/neo/rest/v1/feed?start_date=1996-11-22&end_date=1996-11-22&detailed=true&api_key=t0TVs3DtDT2H8Oy2Zy8m2eVrNsAVKAexjcZXUckd"
  },
  "element_count" : 3,
  "near_earth_objects" : {
    "1996-11-22" : [ {
      "links" : {
        "self" : "https://api.nasa.gov/neo/rest/v1/neo/2451157?api_key=t0TVs3DtDT2H8Oy2Zy8m2eVrNsAVKAexjcZXUckd"
      },
      "neo_reference_id" : "2451157",
      "name" : "451157 (2009 SQ104)",
      "nasa_jpl_url" : "http://ssd.jpl.nasa.gov/sbdb.cgi?sstr=2451157",
      "absolute_magnitude_h" : 21.0,
      "estimated_diameter" : {
        "kilometers" : {
          "estimated_diameter_min" : 0.1677084622,
          "estimated_diameter_max" : 0.3750075218
        },
        "meters" : {
          "estimated_diameter_min" : 167.7084621628,
          "estimated_diameter_max" : 375.0075217981
        },
        "miles" : {
          "estimated_diameter_min" : 0.1042091748,
          "estimated_diameter_max" : 0.2330187988
        },
        "feet" : {
          "estimated_diameter_min" : 550.2246310023,
          "estimated_diameter_max" : 1230.3396778159
        }
      },
      "is_potentially_hazardous_asteroid" : true,
      "close_approach_data" : [ {
        "close_approach_date" : "1996-11-22",
        "epoch_date_close_approach" : 848649600000,
        "relative_velocity" : {
          "kilometers_per_second" : "4.7788500989",
          "kilometers_per_hour" : "17203.8603561592",
          "miles_per_hour" : "10689.8097863035"
        },
        "miss_distance" : {
          "astronomical" : "0.320123032",
          "lunar" : "124.5278625488",
          "kilometers" : "47889728",
          "miles" : "29757296"
        },
        "orbiting_body" : "Earth"
      } ],
      "orbital_data" : {
        "orbit_id" : "56",
        "orbit_determination_date" : "2017-04-06 09:20:08",
        "orbit_uncertainty" : "0",
        "minimum_orbit_intersection" : ".038564",
        "jupiter_tisserand_invariant" : "5.002",
        "epoch_osculation" : "2458000.5",
        "eccentricity" : ".2796356553881334",
        "semi_major_axis" : "1.284726356246116",
        "inclination" : "4.018333579045009",
        "ascending_node_longitude" : "56.55064068847044",
        "orbital_period" : "531.8808786931139",
        "perihelion_distance" : ".9254710596228247",
        "perihelion_argument" : "95.63323115695029",
        "aphelion_distance" : "1.643981652869407",
        "perihelion_time" : "2457952.375551306277",
        "mean_anomaly" : "32.5727098374152",
        "mean_motion" : ".6768432828127927",
        "equinox" : "J2000"
      }
    }, {
      "links" : {
        "self" : "https://api.nasa.gov/neo/rest/v1/neo/3263449?api_key=t0TVs3DtDT2H8Oy2Zy8m2eVrNsAVKAexjcZXUckd"
      },
      "neo_reference_id" : "3263449",
      "name" : "(2004 XL14)",
      "nasa_jpl_url" : "http://ssd.jpl.nasa.gov/sbdb.cgi?sstr=3263449",
      "absolute_magnitude_h" : 21.2,
      "estimated_diameter" : {
        "kilometers" : {
          "estimated_diameter_min" : 0.1529519353,
          "estimated_diameter_max" : 0.3420109247
        },
        "meters" : {
          "estimated_diameter_min" : 152.9519353442,
          "estimated_diameter_max" : 342.0109247198
        },
        "miles" : {
          "estimated_diameter_min" : 0.095039897,
          "estimated_diameter_max" : 0.2125156703
        },
        "feet" : {
          "estimated_diameter_min" : 501.8108275547,
          "estimated_diameter_max" : 1122.0831222578
        }
      },
      "is_potentially_hazardous_asteroid" : true,
      "close_approach_data" : [ {
        "close_approach_date" : "1996-11-22",
        "epoch_date_close_approach" : 848649600000,
        "relative_velocity" : {
          "kilometers_per_second" : "13.2562338952",
          "kilometers_per_hour" : "47722.4420228136",
          "miles_per_hour" : "29652.869600231"
        },
        "miss_distance" : {
          "astronomical" : "0.2446318035",
          "lunar" : "95.1617660522",
          "kilometers" : "36596396",
          "miles" : "22739946"
        },
        "orbiting_body" : "Earth"
      } ],
      "orbital_data" : {
        "orbit_id" : "53",
        "orbit_determination_date" : "2017-04-06 09:11:48",
        "orbit_uncertainty" : "0",
        "minimum_orbit_intersection" : ".0282257",
        "jupiter_tisserand_invariant" : "7.498",
        "epoch_osculation" : "2458000.5",
        "eccentricity" : ".4103628789589713",
        "semi_major_axis" : ".7596268232298126",
        "inclination" : "21.46264607789045",
        "ascending_node_longitude" : "85.62662817845356",
        "orbital_period" : "241.8237015082135",
        "perihelion_distance" : ".4479041731147691",
        "perihelion_argument" : "157.56762762654",
        "aphelion_distance" : "1.071349473344856",
        "perihelion_time" : "2458046.364879770737",
        "mean_anomaly" : "291.7215119341616",
        "mean_motion" : "1.488687824041816",
        "equinox" : "J2000"
      }
    }, {
      "links" : {
        "self" : "https://api.nasa.gov/neo/rest/v1/neo/3733300?api_key=t0TVs3DtDT2H8Oy2Zy8m2eVrNsAVKAexjcZXUckd"
      },
      "neo_reference_id" : "3733300",
      "name" : "(2015 VZ2)",
      "nasa_jpl_url" : "http://ssd.jpl.nasa.gov/sbdb.cgi?sstr=3733300",
      "absolute_magnitude_h" : 22.7,
      "estimated_diameter" : {
        "kilometers" : {
          "estimated_diameter_min" : 0.0766575574,
          "estimated_diameter_max" : 0.1714115092
        },
        "meters" : {
          "estimated_diameter_min" : 76.6575573531,
          "estimated_diameter_max" : 171.4115092306
        },
        "miles" : {
          "estimated_diameter_min" : 0.0476327831,
          "estimated_diameter_max" : 0.1065101409
        },
        "feet" : {
          "estimated_diameter_min" : 251.5011804664,
          "estimated_diameter_max" : 562.3737359442
        }
      },
      "is_potentially_hazardous_asteroid" : false,
      "close_approach_data" : [ {
        "close_approach_date" : "1996-11-22",
        "epoch_date_close_approach" : 848649600000,
        "relative_velocity" : {
          "kilometers_per_second" : "18.3965306839",
          "kilometers_per_hour" : "66227.510461874",
          "miles_per_hour" : "41151.1994867128"
        },
        "miss_distance" : {
          "astronomical" : "0.3207319199",
          "lunar" : "124.7647094727",
          "kilometers" : "47980812",
          "miles" : "29813894"
        },
        "orbiting_body" : "Earth"
      } ],
      "orbital_data" : {
        "orbit_id" : "18",
        "orbit_determination_date" : "2017-04-06 08:30:55",
        "orbit_uncertainty" : "7",
        "minimum_orbit_intersection" : ".0108586",
        "jupiter_tisserand_invariant" : "7.987",
        "epoch_osculation" : "2458000.5",
        "eccentricity" : ".4225945189174068",
        "semi_major_axis" : ".7081644068402426",
        "inclination" : "17.02388906962631",
        "ascending_node_longitude" : "41.66169657860578",
        "orbital_period" : "217.6704971201294",
        "perihelion_distance" : ".4088980100171595",
        "perihelion_argument" : "186.5069970122773",
        "aphelion_distance" : "1.007430803663326",
        "perihelion_time" : "2458098.769693724322",
        "mean_anomaly" : "197.4741170309744",
        "mean_motion" : "1.653875949028227",
        "equinox" : "J2000"
      }
    } ]
  }
}